SL-8 R/B                
1 11574U 79089B   26064.51458021  .00000375  00000+0  12143-3 0  9993
2 11574  74.0672  98.7734 0017140 271.8665  88.0529 14.42347568435505
SL-14 R/B               
1 11672U 80005B   26064.70081557  .00000788  00000+0  77161-4 0  9999
2 11672  82.5152 311.0198 0015837 171.2288 188.9211 14.90925161475899
SL-8 R/B                
1 12139U 81003B   26064.69574547  .00021368  00000+0  55036-3 0  9994
2 12139  82.9384 293.7177 0262609 192.5103 166.9532 15.10785815314072
SL-3 R/B                
1 12465U 81046B   26064.76102645  .00014614  00000+0  34103-3 0  9995
2 12465  81.2301 294.4623 0019904  35.6397 324.6170 15.41873551437828
SL-3 R/B                
1 12904U 81103B   26064.82600212  .00008168  00000+0  36312-3 0  9998
2 12904  81.1583 217.9640 0012483 300.4748  59.5250 15.21320667972644
SL-3 R/B                
1 13068U 82013B   26064.76994828  .00006292  00000+0  27291-3 0  9995
2 13068  81.1765 165.3635 0022412 190.4826 169.5942 15.21967374403758
SL-3 R/B                
1 13154U 82039B   26064.74733360  .00003970  00000+0  24015-3 0  9990
2 13154  81.1583 220.5069 0029824 337.2966  22.6937 15.10053601381044
SL-3 R/B                
1 13403U 82079B   26064.79503495  .00008829  00000+0  35254-3 0  9995
2 13403  81.1478 197.6745 0024897 177.6859 182.4495 15.24727488377103
SL-14 R/B               
1 13553U 82092B   26064.75104701  .00000674  00000+0  72966-4 0  9991
2 13553  82.5701 145.0831 0019246 317.4536 164.0302 14.86661956328343
SL-3 R/B                
1 13819U 83010B   26064.81354227  .00019937  00000+0  40249-3 0  9994
2 13819  81.1066   6.9981 0018307  63.6051 296.7070 15.46188843357340
SL-3 R/B                
1 14208U 83075B   26064.78431998  .00013482  00000+0  35690-3 0  9998
2 14208  97.6138  69.2135 0019828 241.1293 118.7962 15.38303572329552
COSMOS 1536             
1 14699U 84013A   26064.58285331  .00007429  00000+0  30694-3 0  9994
2 14699  82.5433 111.9331 0012741 299.5867  60.4100 15.23762648271999
SL-14 R/B               
1 14820U 84027B   26064.58555958  .00000699  00000+0  77064-4 0  9995
2 14820  82.5381 248.8629 0017713 351.9513   8.1417 14.85971585247028
SL-8 R/B                
1 15483U 85006B   26064.76469479  .00000223  00000+0  82610-4 0  9997
2 15483  74.0433 268.3716 0018603 187.1042 250.5072 14.37779403153463
SL-12 R/B(2)            
1 15772U 85042D   26064.55432426  .00000133  00000+0  81141-4 0  9995
2 15772  71.1063  96.4665 0033429 134.9173 340.1837 14.21981266113806
SL-14 R/B               
1 15945U 85069B   26064.84085448  .00000803  00000+0  88000-4 0  9991
2 15945  82.5277  28.5516 0018127 200.7089 159.3395 14.86428067172268
SL-16 R/B               
1 16182U 85097B   26064.68944376 -.00000091  00000+0 -21638-4 0  9997
2 16182  71.0035 148.9756 0009962 264.5817 208.5938 14.16599681 86666
