[{"OBJECT_NAME":"SL-8 R/B","OBJECT_ID":"1979-089B","EPOCH":"2026-03-05T12:20:59.730144","MEAN_MOTION":14.42347568,"ECCENTRICITY":0.001714,"INCLINATION":74.0672,"RA_OF_ASC_NODE":98.7734,"ARG_OF_PERICENTER":271.8665,"MEAN_ANOMALY":88.0529,"EPHEMERIS_TYPE":0,"CLASSIFICATION_TYPE":"U","NORAD_CAT_ID":11574,"ELEMENT_SET_NO":999,"REV_AT_EPOCH":43550,"BSTAR":0.00012143,"MEAN_MOTION_DOT":3.75e-6,"MEAN_MOTION_DDOT":0},{"OBJECT_NAME":"SL-14 R/B","OBJECT_ID":"1980-005B","EPOCH":"2026-03-05T16:49:10.465248","MEAN_MOTION":14.90925161,"ECCENTRICITY":0.0015837,"INCLINATION":82.5152,"RA_OF_ASC_NODE":311.0198,"ARG_OF_PERICENTER":171.2288,"MEAN_ANOMALY":188.9211,"EPHEMERIS_TYPE":0,"CLASSIFICATION_TYPE":"U","NORAD_CAT_ID":11672,"ELEMENT_SET_NO":999,"REV_AT_EPOCH":47589,"BSTAR":7.7161e-5,"MEAN_MOTION_DOT":7.88e-6,"MEAN_MOTION_DDOT":0},{"OBJECT_NAME":"SL-8 R/B","OBJECT_ID":"1981-003B","EPOCH":"2026-03-05T16:41:52.408608","MEAN_MOTION":15.10785815,"ECCENTRICITY":0.0262609,"INCLINATION":82.9384,"RA_OF_ASC_NODE":293.7177,"ARG_OF_PERICENTER":192.5103,"MEAN_ANOMALY":166.9532,"EPHEMERIS_TYPE":0,"CLASSIFICATION_TYPE":"U","NORAD_CAT_ID":12139,"ELEMENT_SET_NO":999,"REV_AT_EPOCH":31407,"BSTAR":0.00055036,"MEAN_MOTION_DOT":0.00021368,"MEAN_MOTION_DDOT":0},{"OBJECT_NAME":"SL-3 R/B","OBJECT_ID":"1981-046B","EPOCH":"2026-03-05T18:15:52.685280","MEAN_MOTION":15.41873551,"ECCENTRICITY":0.0019904,"INCLINATION":81.2301,"RA_OF_ASC_NODE":294.4623,"ARG_OF_PERICENTER":35.6397,"MEAN_ANOMALY":324.617,"EPHEMERIS_TYPE":0,"CLASSIFICATION_TYPE":"U","NORAD_CAT_ID":12465,"ELEMENT_SET_NO":999,"REV_AT_EPOCH":43782,"BSTAR":0.00034103,"MEAN_MOTION_DOT":0.00014614,"MEAN_MOTION_DDOT":0},{"OBJECT_NAME":"SL-3 R/B","OBJECT_ID":"1981-103B","EPOCH":"2026-03-05T19:49:26.583168","MEAN_MOTION":15.21320667,"ECCENTRICITY":0.0012483,"INCLINATION":81.1583,"RA_OF_ASC_NODE":217.964,"ARG_OF_PERICENTER":300.4748,"MEAN_ANOMALY":59.525,"EPHEMERIS_TYPE":0,"CLASSIFICATION_TYPE":"U","NORAD_CAT_ID":12904,"ELEMENT_SET_NO":999,"REV_AT_EPOCH":97264,"BSTAR":0.00036312,"MEAN_MOTION_DOT":8.168e-5,"MEAN_MOTION_DDOT":0},{"OBJECT_NAME":"SL-3 R/B","OBJECT_ID":"1982-013B","EPOCH":"2026-03-05T18:28:43.531392","MEAN_MOTION":15.21967374,"ECCENTRICITY":0.0022412,"INCLINATION":81.1765,"RA_OF_ASC_NODE":165.3635,"ARG_OF_PERICENTER":190.4826,"MEAN_ANOMALY":169.5942,"EPHEMERIS_TYPE":0,"CLASSIFICATION_TYPE":"U","NORAD_CAT_ID":13068,"ELEMENT_SET_NO":999,"REV_AT_EPOCH":40375,"BSTAR":0.00027291,"MEAN_MOTION_DOT":6.292e-5,"MEAN_MOTION_DDOT":0},{"OBJECT_NAME":"SL-3 R/B","OBJECT_ID":"1982-039B","EPOCH":"2026-03-05T17:56:09.623040","MEAN_MOTION":15.10053601,"ECCENTRICITY":0.0029824,"INCLINATION":81.1583,"RA_OF_ASC_NODE":220.5069,"ARG_OF_PERICENTER":337.2966,"MEAN_ANOMALY":22.6937,"EPHEMERIS_TYPE":0,"CLASSIFICATION_TYPE":"U","NORAD_CAT_ID":13154,"ELEMENT_SET_NO":999,"REV_AT_EPOCH":38104,"BSTAR":0.00024015,"MEAN_MOTION_DOT":3.97e-5,"MEAN_MOTION_DDOT":0},{"OBJECT_NAME":"SL-3 R/B","OBJECT_ID":"1982-079B","EPOCH":"2026-03-05T19:04:51.019680","MEAN_MOTION":15.24727488,"ECCENTRICITY":0.0024897,"INCLINATION":81.1478,"RA_OF_ASC_NODE":197.6745,"ARG_OF_PERICENTER":177.6859,"MEAN_ANOMALY":182.4495,"EPHEMERIS_TYPE":0,"CLASSIFICATION_TYPE":"U","NORAD_CAT_ID":13403,"ELEMENT_SET_NO":999,"REV_AT_EPOCH":37710,"BSTAR":0.00035254,"MEAN_MOTION_DOT":8.829e-5,"MEAN_MOTION_DDOT":0},{"OBJECT_NAME":"SL-14 R/B","OBJECT_ID":"1982-092B","EPOCH":"2026-03-05T18:01:30.461664","MEAN_MOTION":14.86661956,"ECCENTRICITY":0.0019246,"INCLINATION":82.5701,"RA_OF_ASC_NODE":145.0831,"ARG_OF_PERICENTER":317.4536,"MEAN_ANOMALY":164.0302,"EPHEMERIS_TYPE":0,"CLASSIFICATION_TYPE":"U","NORAD_CAT_ID":13553,"ELEMENT_SET_NO":999,"REV_AT_EPOCH":32834,"BSTAR":7.2966e-5,"MEAN_MOTION_DOT":6.74e-6,"MEAN_MOTION_DDOT":0},{"OBJECT_NAME":"SL-3 R/B","OBJECT_ID":"1983-010B","EPOCH":"2026-03-05T19:31:30.052128","MEAN_MOTION":15.46188843,"ECCENTRICITY":0.0018307,"INCLINATION":81.1066,"RA_OF_ASC_NODE":6.9981,"ARG_OF_PERICENTER":63.6051,"MEAN_ANOMALY":296.707,"EPHEMERIS_TYPE":0,"CLASSIFICATION_TYPE":"U","NORAD_CAT_ID":13819,"ELEMENT_SET_NO":999,"REV_AT_EPOCH":35734,"BSTAR":0.00040249,"MEAN_MOTION_DOT":0.00019937,"MEAN_MOTION_DDOT":0},{"OBJECT_NAME":"SL-3 R/B","OBJECT_ID":"1983-075B","EPOCH":"2026-03-05T18:49:25.246272","MEAN_MOTION":15.38303572,"ECCENTRICITY":0.0019828,"INCLINATION":97.6138,"RA_OF_ASC_NODE":69.2135,"ARG_OF_PERICENTER":241.1293,"MEAN_ANOMALY":118.7962,"EPHEMERIS_TYPE":0,"CLASSIFICATION_TYPE":"U","NORAD_CAT_ID":14208,"ELEMENT_SET_NO":999,"REV_AT_EPOCH":32955,"BSTAR":0.0003569,"MEAN_MOTION_DOT":0.00013482,"MEAN_MOTION_DDOT":0},{"OBJECT_NAME":"COSMOS 1536","OBJECT_ID":"1984-013A","EPOCH":"2026-03-05T13:59:18.525984","MEAN_MOTION":15.23762648,"ECCENTRICITY":0.0012741,"INCLINATION":82.5433,"RA_OF_ASC_NODE":111.9331,"ARG_OF_PERICENTER":299.5867,"MEAN_ANOMALY":60.41,"EPHEMERIS_TYPE":0,"CLASSIFICATION_TYPE":"U","NORAD_CAT_ID":14699,"ELEMENT_SET_NO":999,"REV_AT_EPOCH":27199,"BSTAR":0.00030694,"MEAN_MOTION_DOT":7.429e-5,"MEAN_MOTION_DDOT":0},{"OBJECT_NAME":"SL-14 R/B","OBJECT_ID":"1984-027B","EPOCH":"2026-03-05T14:03:12.347712","MEAN_MOTION":14.85971585,"ECCENTRICITY":0.0017713,"INCLINATION":82.5381,"RA_OF_ASC_NODE":248.8629,"ARG_OF_PERICENTER":351.9513,"MEAN_ANOMALY":8.1417,"EPHEMERIS_TYPE":0,"CLASSIFICATION_TYPE":"U","NORAD_CAT_ID":14820,"ELEMENT_SET_NO":999,"REV_AT_EPOCH":24702,"BSTAR":7.7064e-5,"MEAN_MOTION_DOT":6.99e-6,"MEAN_MOTION_DDOT":0},{"OBJECT_NAME":"SL-8 R/B","OBJECT_ID":"1985-006B","EPOCH":"2026-03-05T18:21:09.629856","MEAN_MOTION":14.37779403,"ECCENTRICITY":0.0018603,"INCLINATION":74.0433,"RA_OF_ASC_NODE":268.3716,"ARG_OF_PERICENTER":187.1042,"MEAN_ANOMALY":250.5072,"EPHEMERIS_TYPE":0,"CLASSIFICATION_TYPE":"U","NORAD_CAT_ID":15483,"ELEMENT_SET_NO":999,"REV_AT_EPOCH":15346,"BSTAR":8.261e-5,"MEAN_MOTION_DOT":2.23e-6,"MEAN_MOTION_DDOT":0},{"OBJECT_NAME":"SL-12 R/B(2)","OBJECT_ID":"1985-042D","EPOCH":"2026-03-05T13:18:13.616064","MEAN_MOTION":14.21981266,"ECCENTRICITY":0.0033429,"INCLINATION":71.1063,"RA_OF_ASC_NODE":96.4665,"ARG_OF_PERICENTER":134.9173,"MEAN_ANOMALY":340.1837,"EPHEMERIS_TYPE":0,"CLASSIFICATION_TYPE":"U","NORAD_CAT_ID":15772,"ELEMENT_SET_NO":999,"REV_AT_EPOCH":11380,"BSTAR":8.1141e-5,"MEAN_MOTION_DOT":1.33e-6,"MEAN_MOTION_DDOT":0},{"OBJECT_NAME":"SL-14 R/B","OBJECT_ID":"1985-069B","EPOCH":"2026-03-05T20:10:49.827072","MEAN_MOTION":14.86428067,"ECCENTRICITY":0.0018127,"INCLINATION":82.5277,"RA_OF_ASC_NODE":28.5516,"ARG_OF_PERICENTER":200.7089,"MEAN_ANOMALY":159.3395,"EPHEMERIS_TYPE":0,"CLASSIFICATION_TYPE":"U","NORAD_CAT_ID":15945,"ELEMENT_SET_NO":999,"REV_AT_EPOCH":17226,"BSTAR":8.8e-5,"MEAN_MOTION_DOT":8.03e-6,"MEAN_MOTION_DDOT":0},{"OBJECT_NAME":"SL-16 R/B","OBJECT_ID":"1985-097B","EPOCH":"2026-03-05T16:32:47.940864","MEAN_MOTION":14.16599681,"ECCENTRICITY":0.0009962,"INCLINATION":71.0035,"RA_OF_ASC_NODE":148.9756,"ARG_OF_PERICENTER":264.5817,"MEAN_ANOMALY":208.5938,"EPHEMERIS_TYPE":0,"CLASSIFICATION_TYPE":"U","NORAD_CAT_ID":16182,"ELEMENT_SET_NO":999,"REV_AT_EPOCH":8666,"BSTAR":-2.1638e-5,"MEAN_MOTION_DOT":-9.1e-7,"MEAN_MOTION_DDOT":0}]
